0 TITAN 3C TRANSTAGE DEB
1 38693U 68081T   13272.06237694 -.00000278  00000-0  10000-3 0   942
2 38693 006.6504 315.8673 0106079 224.1171 134.9517 01.02823504 21868
0 TITAN 3C TRANSTAGE DEB
1 38693U 68081T   13274.97985633 -.00000159  00000-0  10000-3 0   956
2 38693 006.6468 315.8519 0106166 224.2862 134.7561 01.02822317 21892
0 TITAN 3C TRANSTAGE DEB
1 38693U 68081T   13281.78746100 -.00000032  00000-0  10000-3 0   968
2 38693 006.6380 315.8144 0106092 224.7033 134.3034 01.02821808 21965
0 TITAN 3C TRANSTAGE DEB
1 38693U 68081T   13283.73251046  .00000000  00000-0  10000-3 0   970
2 38693 006.6352 315.8046 0106459 224.5655 134.4610 01.02819073974600
0 TITAN 3C TRANSTAGE DEB
1 38693U 68081T   13285.67754339 -.00000237  00000-0  10000-3 0   982
2 38693 006.6328 315.7973 0106337 225.0058 134.0042 01.02823752 22001
